{
    "links": {
        "self": "http://www.neowsapp.com/rest/v1/neo/3838270?api_key=iIulBulltgU6a56xZRHN4H3l9WmuAYTsLGpBGhQ2"
    },
    "id": "3838270",
    "neo_reference_id": "3838270",
    "name": "(2019 CN5)",
    "designation": "2019 CN5",
    "nasa_jpl_url": "http://ssd.jpl.nasa.gov/sbdb.cgi?sstr=3838270",
    "absolute_magnitude_h": 27.9,
    "estimated_diameter": {
        "kilometers": {
            "estimated_diameter_min": 0.0069912523,
            "estimated_diameter_max": 0.0156329154
        },
        "meters": {
            "estimated_diameter_min": 6.9912523225,
            "estimated_diameter_max": 15.6329154409
        },
        "miles": {
            "estimated_diameter_min": 0.0043441614,
            "estimated_diameter_max": 0.0097138403
        },
        "feet": {
            "estimated_diameter_min": 22.9371802696,
            "estimated_diameter_max": 51.289094295
        }
    },
    "is_potentially_hazardous_asteroid": false,
    "close_approach_data": [
        {
            "close_approach_date": "2017-02-25",
            "close_approach_date_full": "2017-Feb-25 20:59",
            "epoch_date_close_approach": 1488056340000,
            "relative_velocity": {
                "kilometers_per_second": "23.6231109726",
                "kilometers_per_hour": "85043.1995015076",
                "miles_per_hour": "52842.5369347007"
            },
            "miss_distance": {
                "astronomical": "0.2757205232",
                "lunar": "107.2552835248",
                "kilometers": "41247202.986005584",
                "miles": "25629823.4647976992"
            },
            "orbiting_body": "Earth"
        },
        {
            "close_approach_date": "2019-02-11",
            "close_approach_date_full": "2019-Feb-11 04:43",
            "epoch_date_close_approach": 1549860180000,
            "relative_velocity": {
                "kilometers_per_second": "14.8944881971",
                "kilometers_per_hour": "53620.1575094538",
                "miles_per_hour": "33317.480648027"
            },
            "miss_distance": {
                "astronomical": "0.0018113377",
                "lunar": "0.7046103653",
                "kilometers": "270972.261770699",
                "miles": "168374.3558416862"
            },
            "orbiting_body": "Moon"
        },
        {
            "close_approach_date": "2019-02-11",
            "close_approach_date_full": "2019-Feb-11 07:23",
            "epoch_date_close_approach": 1549869780000,
            "relative_velocity": {
                "kilometers_per_second": "15.8414130677",
                "kilometers_per_hour": "57029.0870437758",
                "miles_per_hour": "35435.6568911728"
            },
            "miss_distance": {
                "astronomical": "0.0007931521",
                "lunar": "0.3085361669",
                "kilometers": "118653.864746027",
                "miles": "73728.0927360926"
            },
            "orbiting_body": "Earth"
        }
    ],
    "orbital_data": {
        "orbit_id": "1",
        "orbit_determination_date": "2019-02-12 22:42:59",
        "first_observation_date": "2019-02-12",
        "last_observation_date": "2019-02-12",
        "data_arc_in_days": null,
        "observations_used": 32,
        "orbit_uncertainty": "7",
        "minimum_orbit_intersection": ".000514992",
        "jupiter_tisserand_invariant": "4.105",
        "epoch_osculation": "2459000.5",
        "eccentricity": ".5551201288768994",
        "semi_major_axis": "1.634211296687733",
        "inclination": "8.78052659720481",
        "ascending_node_longitude": "321.9912070488824",
        "orbital_period": "763.0636037978998",
        "perihelion_distance": ".7270277110583537",
        "perihelion_argument": "105.0018930555637",
        "aphelion_distance": "2.541394882317113",
        "perihelion_time": "2459241.648514667042",
        "mean_anomaly": "246.2303681527342",
        "mean_motion": ".4717824283692967",
        "equinox": "J2000",
        "orbit_class": {
            "orbit_class_type": "APO",
            "orbit_class_description": "Near-Earth asteroid orbits which cross the Earth’s orbit similar to that of 1862 Apollo",
            "orbit_class_range": "a (semi-major axis) > 1.0 AU; q (perihelion) < 1.017 AU"
        }
    },
    "is_sentry_object": false
}